IRIDIUM 57              
1 25273U 98019B   24279.85278306  .00002833  00000+0  97960-3 0  9998
2 25273  86.3923 251.7353 0002351  90.3291 269.8175 14.35452798388299
IRIDIUM 63              
1 25286U 98021B   24279.83264704  .00002971  00000+0  10152-2 0  9990
2 25286  86.4057 188.7127 0002396  79.2135 280.9332 14.36062237387601
IRIDIUM 69              
1 25319U 98026A   24280.19994235  .00003573  00000+0  11210-2 0  9997
2 25319  86.4045 202.5915 0004180 111.4749 248.6897 14.40348569386738
IRIDIUM 71              
1 25320U 98026B   24279.82907309  .00003210  00000+0  10007-2 0  9994
2 25320  86.4048 197.4927 0002208 139.1673 220.9692 14.40634407386960
IRIDIUM 73              
1 25344U 98032C   24280.14370090  .00002853  00000+0  71724-3 0  9991
2 25344  86.4455 154.6579 0002730  93.6207 266.5311 14.50959172394012
IRIDIUM 82              
1 25467U 98051A   24279.87924234  .00036860  00000+0  16256-2 0  9994
2 25467  86.3745 233.0302 0116936 169.7742 190.5921 15.15571322385223
