<?xml version="1.0" encoding="UTF-8"?>
<ndm xmlns:xsi="http://www.w3.org/2001/XMLSchema-instance" xsi:noNamespaceSchemaLocation="https://sanaregistry.org/r/ndmxml_unqualified/ndmxml-2.0.0-master-2.0.xsd">
<omm id="CCSDS_OMM_VERS" version="2.0">
<header><CREATION_DATE/><ORIGINATOR/></header><body><segment><metadata><OBJECT_NAME>IRIDIUM 57</OBJECT_NAME><OBJECT_ID>1998-019B</OBJECT_ID><CENTER_NAME>EARTH</CENTER_NAME><REF_FRAME>TEME</REF_FRAME><TIME_SYSTEM>UTC</TIME_SYSTEM><MEAN_ELEMENT_THEORY>SGP4</MEAN_ELEMENT_THEORY></metadata><data><meanElements><EPOCH>2024-10-05T20:28:00.456384</EPOCH><MEAN_MOTION>14.35452798</MEAN_MOTION><ECCENTRICITY>.0002351</ECCENTRICITY><INCLINATION>86.3923</INCLINATION><RA_OF_ASC_NODE>251.7353</RA_OF_ASC_NODE><ARG_OF_PERICENTER>90.3291</ARG_OF_PERICENTER><MEAN_ANOMALY>269.8175</MEAN_ANOMALY></meanElements><tleParameters><EPHEMERIS_TYPE>0</EPHEMERIS_TYPE><CLASSIFICATION_TYPE>U</CLASSIFICATION_TYPE><NORAD_CAT_ID>25273</NORAD_CAT_ID><ELEMENT_SET_NO>999</ELEMENT_SET_NO><REV_AT_EPOCH>38829</REV_AT_EPOCH><BSTAR>.9796E-3</BSTAR><MEAN_MOTION_DOT>.2833E-4</MEAN_MOTION_DOT><MEAN_MOTION_DDOT>0</MEAN_MOTION_DDOT></tleParameters></data></segment></body></omm>
<omm id="CCSDS_OMM_VERS" version="2.0">
<header><CREATION_DATE/><ORIGINATOR/></header><body><segment><metadata><OBJECT_NAME>IRIDIUM 63</OBJECT_NAME><OBJECT_ID>1998-021B</OBJECT_ID><CENTER_NAME>EARTH</CENTER_NAME><REF_FRAME>TEME</REF_FRAME><TIME_SYSTEM>UTC</TIME_SYSTEM><MEAN_ELEMENT_THEORY>SGP4</MEAN_ELEMENT_THEORY></metadata><data><meanElements><EPOCH>2024-10-05T19:59:00.704256</EPOCH><MEAN_MOTION>14.36062237</MEAN_MOTION><ECCENTRICITY>.0002396</ECCENTRICITY><INCLINATION>86.4057</INCLINATION><RA_OF_ASC_NODE>188.7127</RA_OF_ASC_NODE><ARG_OF_PERICENTER>79.2135</ARG_OF_PERICENTER><MEAN_ANOMALY>280.9332</MEAN_ANOMALY></meanElements><tleParameters><EPHEMERIS_TYPE>0</EPHEMERIS_TYPE><CLASSIFICATION_TYPE>U</CLASSIFICATION_TYPE><NORAD_CAT_ID>25286</NORAD_CAT_ID><ELEMENT_SET_NO>999</ELEMENT_SET_NO><REV_AT_EPOCH>38760</REV_AT_EPOCH><BSTAR>.10152E-2</BSTAR><MEAN_MOTION_DOT>.2971E-4</MEAN_MOTION_DOT><MEAN_MOTION_DDOT>0</MEAN_MOTION_DDOT></tleParameters></data></segment></body></omm>
<omm id="CCSDS_OMM_VERS" version="2.0">
<header><CREATION_DATE/><ORIGINATOR/></header><body><segment><metadata><OBJECT_NAME>IRIDIUM 69</OBJECT_NAME><OBJECT_ID>1998-026A</OBJECT_ID><CENTER_NAME>EARTH</CENTER_NAME><REF_FRAME>TEME</REF_FRAME><TIME_SYSTEM>UTC</TIME_SYSTEM><MEAN_ELEMENT_THEORY>SGP4</MEAN_ELEMENT_THEORY></metadata><data><meanElements><EPOCH>2024-10-06T04:47:55.019040</EPOCH><MEAN_MOTION>14.40348569</MEAN_MOTION><ECCENTRICITY>.000418</ECCENTRICITY><INCLINATION>86.4045</INCLINATION><RA_OF_ASC_NODE>202.5915</RA_OF_ASC_NODE><ARG_OF_PERICENTER>111.4749</ARG_OF_PERICENTER><MEAN_ANOMALY>248.6897</MEAN_ANOMALY></meanElements><tleParameters><EPHEMERIS_TYPE>0</EPHEMERIS_TYPE><CLASSIFICATION_TYPE>U</CLASSIFICATION_TYPE><NORAD_CAT_ID>25319</NORAD_CAT_ID><ELEMENT_SET_NO>999</ELEMENT_SET_NO><REV_AT_EPOCH>38673</REV_AT_EPOCH><BSTAR>.1121E-2</BSTAR><MEAN_MOTION_DOT>.3573E-4</MEAN_MOTION_DOT><MEAN_MOTION_DDOT>0</MEAN_MOTION_DDOT></tleParameters></data></segment></body></omm>
<omm id="CCSDS_OMM_VERS" version="2.0">
<header><CREATION_DATE/><ORIGINATOR/></header><body><segment><metadata><OBJECT_NAME>IRIDIUM 71</OBJECT_NAME><OBJECT_ID>1998-026B</OBJECT_ID><CENTER_NAME>EARTH</CENTER_NAME><REF_FRAME>TEME</REF_FRAME><TIME_SYSTEM>UTC</TIME_SYSTEM><MEAN_ELEMENT_THEORY>SGP4</MEAN_ELEMENT_THEORY></metadata><data><meanElements><EPOCH>2024-10-05T19:53:51.914976</EPOCH><MEAN_MOTION>14.40634407</MEAN_MOTION><ECCENTRICITY>.0002208</ECCENTRICITY><INCLINATION>86.4048</INCLINATION><RA_OF_ASC_NODE>197.4927</RA_OF_ASC_NODE><ARG_OF_PERICENTER>139.1673</ARG_OF_PERICENTER><MEAN_ANOMALY>220.9692</MEAN_ANOMALY></meanElements><tleParameters><EPHEMERIS_TYPE>0</EPHEMERIS_TYPE><CLASSIFICATION_TYPE>U</CLASSIFICATION_TYPE><NORAD_CAT_ID>25320</NORAD_CAT_ID><ELEMENT_SET_NO>999</ELEMENT_SET_NO><REV_AT_EPOCH>38696</REV_AT_EPOCH><BSTAR>.10007E-2</BSTAR><MEAN_MOTION_DOT>.321E-4</MEAN_MOTION_DOT><MEAN_MOTION_DDOT>0</MEAN_MOTION_DDOT></tleParameters></data></segment></body></omm>
<omm id="CCSDS_OMM_VERS" version="2.0">
<header><CREATION_DATE/><ORIGINATOR/></header><body><segment><metadata><OBJECT_NAME>IRIDIUM 73</OBJECT_NAME><OBJECT_ID>1998-032C</OBJECT_ID><CENTER_NAME>EARTH</CENTER_NAME><REF_FRAME>TEME</REF_FRAME><TIME_SYSTEM>UTC</TIME_SYSTEM><MEAN_ELEMENT_THEORY>SGP4</MEAN_ELEMENT_THEORY></metadata><data><meanElements><EPOCH>2024-10-06T03:26:55.757760</EPOCH><MEAN_MOTION>14.50959172</MEAN_MOTION><ECCENTRICITY>.000273</ECCENTRICITY><INCLINATION>86.4455</INCLINATION><RA_OF_ASC_NODE>154.6579</RA_OF_ASC_NODE><ARG_OF_PERICENTER>93.6207</ARG_OF_PERICENTER><MEAN_ANOMALY>266.5311</MEAN_ANOMALY></meanElements><tleParameters><EPHEMERIS_TYPE>0</EPHEMERIS_TYPE><CLASSIFICATION_TYPE>U</CLASSIFICATION_TYPE><NORAD_CAT_ID>25344</NORAD_CAT_ID><ELEMENT_SET_NO>999</ELEMENT_SET_NO><REV_AT_EPOCH>39401</REV_AT_EPOCH><BSTAR>.71724E-3</BSTAR><MEAN_MOTION_DOT>.2853E-4</MEAN_MOTION_DOT><MEAN_MOTION_DDOT>0</MEAN_MOTION_DDOT></tleParameters></data></segment></body></omm>
<omm id="CCSDS_OMM_VERS" version="2.0">
<header><CREATION_DATE/><ORIGINATOR/></header><body><segment><metadata><OBJECT_NAME>IRIDIUM 82</OBJECT_NAME><OBJECT_ID>1998-051A</OBJECT_ID><CENTER_NAME>EARTH</CENTER_NAME><REF_FRAME>TEME</REF_FRAME><TIME_SYSTEM>UTC</TIME_SYSTEM><MEAN_ELEMENT_THEORY>SGP4</MEAN_ELEMENT_THEORY></metadata><data><meanElements><EPOCH>2024-10-05T21:06:06.538176</EPOCH><MEAN_MOTION>15.15571322</MEAN_MOTION><ECCENTRICITY>.0116936</ECCENTRICITY><INCLINATION>86.3745</INCLINATION><RA_OF_ASC_NODE>233.0302</RA_OF_ASC_NODE><ARG_OF_PERICENTER>169.7742</ARG_OF_PERICENTER><MEAN_ANOMALY>190.5921</MEAN_ANOMALY></meanElements><tleParameters><EPHEMERIS_TYPE>0</EPHEMERIS_TYPE><CLASSIFICATION_TYPE>U</CLASSIFICATION_TYPE><NORAD_CAT_ID>25467</NORAD_CAT_ID><ELEMENT_SET_NO>999</ELEMENT_SET_NO><REV_AT_EPOCH>38522</REV_AT_EPOCH><BSTAR>.16256E-2</BSTAR><MEAN_MOTION_DOT>.3686E-3</MEAN_MOTION_DOT><MEAN_MOTION_DDOT>0</MEAN_MOTION_DDOT></tleParameters></data></segment></body></omm>
</ndm>
